start=new Date('2022-01-17T00:00:00.000Z').valueOf();
sats=[{"EPHEMERIS_TYPE":"0","FILE":"3274671","SITE":"AFETR","COUNTRY_CODE":"US","OBJECT_TYPE":"PAYLOAD","MEAN_ANOMALY":"298.9273","TLE_LINE1":"1 47361U 21005N   22016.28175519  .00007625  00000-0  52991-3 0  9997","INCLINATION":"53.0558","ARG_OF_PERICENTER":"61.1900","PERIAPSIS":"545.877","TIME_SYSTEM":"UTC","ELEMENT_SET_NO":"999","OBJECT_NAME":"STARLINK-2071","GP_ID":"193984522","CENTER_NAME":"EARTH","SEMIMAJOR_AXIS":"6925.282","PERIOD":"95.591","MEAN_MOTION":"15.06421613","OBJECT_ID":"2021-005N","BSTAR":"0.00052991000000","ECCENTRICITY":"0.00018340","CLASSIFICATION_TYPE":"U","NORAD_CAT_ID":"47361","REV_AT_EPOCH":"5535","MEAN_MOTION_DOT":"0.00007625","MEAN_MOTION_DDOT":"0.0000000000000","EPOCH":"2022-01-16T06:45:43.648416","APOAPSIS":"548.417","TLE_LINE2":"2 47361  53.0558 345.5614 0001834  61.1900 298.9273 15.06421613 55357","DECAY_DATE":null,"RCS_SIZE":"LARGE","REF_FRAME":"TEME","LAUNCH_DATE":"2021-01-20","MEAN_ELEMENT_THEORY":"SGP4","RA_OF_ASC_NODE":"345.5614"},{"INCLINATION":"53.0545","TLE_LINE1":"1 47362U 21005P   22016.72498671  .00001635  00000-0  12861-3 0  9991","COUNTRY_CODE":"US","OBJECT_TYPE":"PAYLOAD","MEAN_ANOMALY":"293.9373","SITE":"AFETR","FILE":"3274822","EPHEMERIS_TYPE":"0","ELEMENT_SET_NO":"999","TIME_SYSTEM":"UTC","PERIAPSIS":"546.049","ARG_OF_PERICENTER":"66.1787","EPOCH":"2022-01-16T17:23:58.851744","MEAN_MOTION_DDOT":"0.0000000000000","MEAN_MOTION_DOT":"0.00001635","REV_AT_EPOCH":"5500","NORAD_CAT_ID":"47362","CLASSIFICATION_TYPE":"U","PERIOD":"95.591","MEAN_MOTION":"15.06411620","SEMIMAJOR_AXIS":"6925.313","BSTAR":"0.00012861000000","OBJECT_ID":"2021-005P","ECCENTRICITY":"0.00016300","CENTER_NAME":"EARTH","OBJECT_NAME":"STARLINK-2076","GP_ID":"193991044","MEAN_ELEMENT_THEORY":"SGP4","RA_OF_ASC_NODE":"13.5846","LAUNCH_DATE":"2021-01-20","REF_FRAME":"TEME","RCS_SIZE":"LARGE","DECAY_DATE":null,"APOAPSIS":"548.307","TLE_LINE2":"2 47362  53.0545  13.5846 0001630  66.1787 293.9373 15.06411620 55000"},{"TLE_LINE1":"1 47363U 21005Q   22016.39693842 -.00000237  00000-0  29842-5 0  9999","INCLINATION":"53.0554","COUNTRY_CODE":"US","OBJECT_TYPE":"PAYLOAD","MEAN_ANOMALY":"297.9804","FILE":"3274671","EPHEMERIS_TYPE":"0","SITE":"AFETR","PERIAPSIS":"545.870","TIME_SYSTEM":"UTC","ELEMENT_SET_NO":"999","ARG_OF_PERICENTER":"62.1378","MEAN_MOTION_DDOT":"0.0000000000000","MEAN_MOTION_DOT":"-0.00000237","EPOCH":"2022-01-16T09:31:35.479488","NORAD_CAT_ID":"47363","REV_AT_EPOCH":"5495","PERIOD":"95.592","SEMIMAJOR_AXIS":"6925.324","MEAN_MOTION":"15.06408121","BSTAR":"0.00000298420000","OBJECT_ID":"2021-005Q","ECCENTRICITY":"0.00019040","CLASSIFICATION_TYPE":"U","OBJECT_NAME":"STARLINK-2077","GP_ID":"193985522","CENTER_NAME":"EARTH","MEAN_ELEMENT_THEORY":"SGP4","RA_OF_ASC_NODE":"15.0483","REF_FRAME":"TEME","LAUNCH_DATE":"2021-01-20","RCS_SIZE":"LARGE","APOAPSIS":"548.507","TLE_LINE2":"2 47363  53.0554  15.0483 0001904  62.1378 297.9804 15.06408121 54959","DECAY_DATE":null},{"ELEMENT_SET_NO":"999","PERIAPSIS":"333.597","TIME_SYSTEM":"UTC","ARG_OF_PERICENTER":"286.9655","INCLINATION":"53.0426","TLE_LINE1":"1 47365U 21005S   22016.90088996  .00013969  00000-0  88588-4 0  9992","COUNTRY_CODE":"US","MEAN_ANOMALY":"73.0423","OBJECT_TYPE":"PAYLOAD","SITE":"AFETR","FILE":"3274998","EPHEMERIS_TYPE":"0","MEAN_ELEMENT_THEORY":"SGP4","RA_OF_ASC_NODE":"226.7467","LAUNCH_DATE":"2021-01-20","REF_FRAME":"TEME","RCS_SIZE":"LARGE","DECAY_DATE":null,"TLE_LINE2":"2 47365  53.0426 226.7467 0008586 286.9655  73.0423 15.76853127 57735","APOAPSIS":"345.133","EPOCH":"2022-01-16T21:37:16.892544","MEAN_MOTION_DDOT":"0.0000000000000","MEAN_MOTION_DOT":"0.00013969","NORAD_CAT_ID":"47365","REV_AT_EPOCH":"5773","CLASSIFICATION_TYPE":"U","PERIOD":"91.321","SEMIMAJOR_AXIS":"6717.500","MEAN_MOTION":"15.76853127","BSTAR":"0.00008858800000","OBJECT_ID":"2021-005S","ECCENTRICITY":"0.00085860","CENTER_NAME":"EARTH","OBJECT_NAME":"STARLINK-2080","GP_ID":"193995026"},{"LAUNCH_DATE":"2021-01-20","REF_FRAME":"TEME","MEAN_ELEMENT_THEORY":"SGP4","RA_OF_ASC_NODE":"15.5421","DECAY_DATE":null,"TLE_LINE2":"2 47366  53.0566  15.5421 0001720  64.6525 295.4642 15.06410341 54937","APOAPSIS":"548.373","RCS_SIZE":"LARGE","NORAD_CAT_ID":"47366","REV_AT_EPOCH":"5493","EPOCH":"2022-01-16T06:57:40.435776","MEAN_MOTION_DOT":"0.00001293","MEAN_MOTION_DDOT":"0.0000000000000","CENTER_NAME":"EARTH","OBJECT_NAME":"STARLINK-2081","GP_ID":"193985022","CLASSIFICATION_TYPE":"U","PERIOD":"95.591","SEMIMAJOR_AXIS":"6925.317","MEAN_MOTION":"15.06410341","BSTAR":"0.00010569000000","OBJECT_ID":"2021-005T","ECCENTRICITY":"0.00017200","ELEMENT_SET_NO":"999","TIME_SYSTEM":"UTC","PERIAPSIS":"545.991","ARG_OF_PERICENTER":"64.6525","INCLINATION":"53.0566","TLE_LINE1":"1 47366U 21005T   22016.29005134  .00001293  00000-0  10569-3 0  9998","EPHEMERIS_TYPE":"0","FILE":"3274671","SITE":"AFETR","COUNTRY_CODE":"US","OBJECT_TYPE":"PAYLOAD","MEAN_ANOMALY":"295.4642"},{"PERIAPSIS":"546.042","TIME_SYSTEM":"UTC","ELEMENT_SET_NO":"999","ARG_OF_PERICENTER":"66.2799","TLE_LINE1":"1 47367U 21005U   22016.38219308  .00004022  00000-0  28871-3 0  9997","INCLINATION":"53.0565","FILE":"3274671","EPHEMERIS_TYPE":"0","SITE":"AFETR","MEAN_ANOMALY":"293.8363","OBJECT_TYPE":"PAYLOAD","COUNTRY_CODE":"US","REF_FRAME":"TEME","LAUNCH_DATE":"2021-01-20","RA_OF_ASC_NODE":"15.1323","MEAN_ELEMENT_THEORY":"SGP4","TLE_LINE2":"2 47367  53.0565  15.1323 0001654  66.2799 293.8363 15.06408430 54951","APOAPSIS":"548.333","DECAY_DATE":null,"RCS_SIZE":"LARGE","REV_AT_EPOCH":"5495","NORAD_CAT_ID":"47367","MEAN_MOTION_DOT":"0.00004022","MEAN_MOTION_DDOT":"0.0000000000000","EPOCH":"2022-01-16T09:10:21.482112","GP_ID":"193985274","OBJECT_NAME":"STARLINK-2082","CENTER_NAME":"EARTH","BSTAR":"0.00028871000000","ECCENTRICITY":"0.00016540","OBJECT_ID":"2021-005U","PERIOD":"95.592","SEMIMAJOR_AXIS":"6925.323","MEAN_MOTION":"15.06408430","CLASSIFICATION_TYPE":"U"},{"INCLINATION":"53.0540","TLE_LINE1":"1 47368U 21005V   22016.70655628  .00002670  00000-0  19801-3 0  9993","COUNTRY_CODE":"US","MEAN_ANOMALY":"296.0061","OBJECT_TYPE":"PAYLOAD","FILE":"3274788","SITE":"AFETR","EPHEMERIS_TYPE":"0","ELEMENT_SET_NO":"999","TIME_SYSTEM":"UTC","PERIAPSIS":"545.958","ARG_OF_PERICENTER":"64.1108","EPOCH":"2022-01-16T16:57:26.462592","MEAN_MOTION_DOT":"0.00002670","MEAN_MOTION_DDOT":"0.0000000000000","NORAD_CAT_ID":"47368","REV_AT_EPOCH":"5594","CLASSIFICATION_TYPE":"U","PERIOD":"95.591","SEMIMAJOR_AXIS":"6925.307","MEAN_MOTION":"15.06413662","BSTAR":"0.00019801000000","OBJECT_ID":"2021-005V","ECCENTRICITY":"0.00017520","CENTER_NAME":"EARTH","OBJECT_NAME":"STARLINK-2084","GP_ID":"193990454","MEAN_ELEMENT_THEORY":"SGP4","RA_OF_ASC_NODE":"13.6614","LAUNCH_DATE":"2021-01-20","REF_FRAME":"TEME","RCS_SIZE":"LARGE","DECAY_DATE":null,"APOAPSIS":"548.385","TLE_LINE2":"2 47368  53.0540  13.6614 0001752  64.1108 296.0061 15.06413662 55944"},{"APOAPSIS":"548.375","TLE_LINE2":"2 47369  53.0554 355.4357 0001743  67.4526 292.6647 15.06414829 55220","DECAY_DATE":null,"RCS_SIZE":"LARGE","REF_FRAME":"TEME","LAUNCH_DATE":"2021-01-20","MEAN_ELEMENT_THEORY":"SGP4","RA_OF_ASC_NODE":"355.4357","OBJECT_NAME":"STARLINK-2085","GP_ID":"193984273","CENTER_NAME":"EARTH","PERIOD":"95.591","SEMIMAJOR_AXIS":"6925.303","MEAN_MOTION":"15.06414829","BSTAR":"0.00029810000000","ECCENTRICITY":"0.00017430","OBJECT_ID":"2021-005W","CLASSIFICATION_TYPE":"U","NORAD_CAT_ID":"47369","REV_AT_EPOCH":"5522","MEAN_MOTION_DOT":"0.00004163","MEAN_MOTION_DDOT":"0.0000000000000","EPOCH":"2022-01-16T07:32:10.146912","ARG_OF_PERICENTER":"67.4526","PERIAPSIS":"545.961","TIME_SYSTEM":"UTC","ELEMENT_SET_NO":"999","SITE":"AFETR","FILE":"3274671","EPHEMERIS_TYPE":"0","COUNTRY_CODE":"US","MEAN_ANOMALY":"292.6647","OBJECT_TYPE":"PAYLOAD","TLE_LINE1":"1 47369U 21005W   22016.31400633  .00004163  00000-0  29810-3 0  9995","INCLINATION":"53.0554"},{"CENTER_NAME":"EARTH","GP_ID":"193990448","OBJECT_NAME":"STARLINK-2086","CLASSIFICATION_TYPE":"U","BSTAR":"0.00020436000000","OBJECT_ID":"2021-005X","ECCENTRICITY":"0.00019160","PERIOD":"95.591","SEMIMAJOR_AXIS":"6925.301","MEAN_MOTION":"15.06415637","REV_AT_EPOCH":"5555","NORAD_CAT_ID":"47370","EPOCH":"2022-01-16T14:28:49.078848","MEAN_MOTION_DOT":"0.00002765","MEAN_MOTION_DDOT":"0.0000000000000","DECAY_DATE":null,"APOAPSIS":"548.493","TLE_LINE2":"2 47370  53.0569 334.1372 0001916  59.3249 300.7929 15.06415637 55551","RCS_SIZE":"LARGE","LAUNCH_DATE":"2021-01-20","REF_FRAME":"TEME","RA_OF_ASC_NODE":"334.1372","MEAN_ELEMENT_THEORY":"SGP4","FILE":"3274788","EPHEMERIS_TYPE":"0","SITE":"AFETR","OBJECT_TYPE":"PAYLOAD","MEAN_ANOMALY":"300.7929","COUNTRY_CODE":"US","INCLINATION":"53.0569","TLE_LINE1":"1 47370U 21005X   22016.60334582  .00002765  00000-0  20436-3 0  9999","ARG_OF_PERICENTER":"59.3249","ELEMENT_SET_NO":"999","TIME_SYSTEM":"UTC","PERIAPSIS":"545.839"},{"COUNTRY_CODE":"US","MEAN_ANOMALY":"289.6532","OBJECT_TYPE":"PAYLOAD","FILE":"3274671","EPHEMERIS_TYPE":"0","SITE":"AFETR","TLE_LINE1":"1 47371U 21005Y   22016.25687330  .00002882  00000-0  21221-3 0  9996","INCLINATION":"53.0560","ARG_OF_PERICENTER":"70.4630","TIME_SYSTEM":"UTC","PERIAPSIS":"546.058","ELEMENT_SET_NO":"999","SEMIMAJOR_AXIS":"6925.303","PERIOD":"95.591","MEAN_MOTION":"15.06414936","OBJECT_ID":"2021-005Y","BSTAR":"0.00021221000000","ECCENTRICITY":"0.00016030","CLASSIFICATION_TYPE":"U","OBJECT_NAME":"STARLINK-2088","GP_ID":"193985774","CENTER_NAME":"EARTH","MEAN_MOTION_DOT":"0.00002882","MEAN_MOTION_DDOT":"0.0000000000000","EPOCH":"2022-01-16T06:09:53.853120","REV_AT_EPOCH":"5493","NORAD_CAT_ID":"47371","RCS_SIZE":"LARGE","TLE_LINE2":"2 47371  53.0560  15.6820 0001603  70.4630 289.6532 15.06414936 54930","APOAPSIS":"548.278","DECAY_DATE":null,"MEAN_ELEMENT_THEORY":"SGP4","RA_OF_ASC_NODE":"15.6820","REF_FRAME":"TEME","LAUNCH_DATE":"2021-01-20"}];
